[{"OBJECT_NAME":"PADRE","OBJECT_ID":"2025-135AH","EPOCH":"2026-03-09T21:49:33.195936","MEAN_MOTION":14.92114701,"ECCENTRICITY":0.00013867,"INCLINATION":97.759,"RA_OF_ASC_NODE":183.9613,"ARG_OF_PERICENTER":187.9932,"MEAN_ANOMALY":172.1266,"EPHEMERIS_TYPE":0,"CLASSIFICATION_TYPE":"U","NORAD_CAT_ID":64559,"ELEMENT_SET_NO":999,"REV_AT_EPOCH":3904,"BSTAR":0.00028627052,"MEAN_MOTION_DOT":2.854e-5,"MEAN_MOTION_DDOT":0},{"OBJECT_NAME":"ELISA E12","OBJECT_ID":"2011-076D","EPOCH":"2026-03-09T21:55:09.308352","MEAN_MOTION":14.92421769,"ECCENTRICITY":0.00021236,"INCLINATION":97.6519,"RA_OF_ASC_NODE":97.7616,"ARG_OF_PERICENTER":107.7768,"MEAN_ANOMALY":252.3684,"EPHEMERIS_TYPE":0,"CLASSIFICATION_TYPE":"U","NORAD_CAT_ID":38010,"ELEMENT_SET_NO":999,"REV_AT_EPOCH":76441,"BSTAR":0.00016008382,"MEAN_MOTION_DOT":1.585e-5,"MEAN_MOTION_DDOT":0}]
